{
  "type": "FeatureCollection",
  "features": [
    {
      "type": "Feature",
      "properties": {
        "norad_id": 30494,
        "name": "FENGYUN 1C DEB",
        "group": "fengyun-1c-debris",
        "lat": 9.32322296020266,
        "lon": 15.878124830522097,
        "alt_km": 1062.3312419623426,
        "timestamp": "2025-12-07T22:37:43.356588+00:00",
        "meta_object_name": "FENGYUN 1C DEB",
        "meta_object_id": "1999-025AHG",
        "meta_epoch": "2025-12-07T01:41:28.106016",
        "meta_mean_motion": 13.793444,
        "meta_eccentricity": 0.01856403,
        "meta_inclination": 99.2827,
        "meta_ra_of_asc_node": 16.5615,
        "meta_arg_of_pericenter": 237.1866,
        "meta_mean_anomaly": 121.1289,
        "meta_ephemeris_type": 0,
        "meta_classification_type": "U",
        "meta_norad_cat_id": 30494,
        "meta_element_set_no": 999,
        "meta_rev_at_epoch": 94408,
        "meta_bstar": 0.0022953842,
        "meta_mean_motion_dot": 2.638e-05,
        "meta_mean_motion_ddot": 0,
        "tle_line1": "1 30494U 99025AHG 25341.07046419  .00002638  00000+0  22954-2 0  9993",
        "tle_line2": "2 30494  99.2827  16.5615 0185640 237.1866 121.1289 13.79344400944084"
      },
      "geometry": {
        "type": "Point",
        "coordinates": [
          15.878124830522097,
          9.32322296020266
        ]
      }
    },
    {
      "type": "Feature",
      "properties": {
        "norad_id": 30495,
        "name": "FENGYUN 1C DEB",
        "group": "fengyun-1c-debris",
        "lat": 33.621505340857546,
        "lon": 61.825500800071474,
        "alt_km": 1475.6343813141248,
        "timestamp": "2025-12-07T22:37:43.356599+00:00",
        "meta_object_name": "FENGYUN 1C DEB",
        "meta_object_id": "1999-025AHH",
        "meta_epoch": "2025-12-07T00:11:16.113696",
        "meta_mean_motion": 12.94349714,
        "meta_eccentricity": 0.05965593,
        "meta_inclination": 102.261,
        "meta_ra_of_asc_node": 69.0917,
        "meta_arg_of_pericenter": 278.3768,
        "meta_mean_anomaly": 75.0161,
        "meta_ephemeris_type": 0,
        "meta_classification_type": "U",
        "meta_norad_cat_id": 30495,
        "meta_element_set_no": 999,
        "meta_rev_at_epoch": 88599,
        "meta_bstar": 0.0049981106,
        "meta_mean_motion_dot": 3.068e-05,
        "meta_mean_motion_ddot": 0,
        "tle_line1": "1 30495U 99025AHH 25341.00782539  .00003068  00000+0  49981-2 0  9994",
        "tle_line2": "2 30495 102.2610  69.0917 0596559 278.3768  75.0161 12.94349714885990"
      },
      "geometry": {
        "type": "Point",
        "coordinates": [
          61.825500800071474,
          33.621505340857546
        ]
      }
    },
    {
      "type": "Feature",
      "properties": {
        "norad_id": 30496,
        "name": "FENGYUN 1C DEB",
        "group": "fengyun-1c-debris",
        "lat": 54.67934695163715,
        "lon": -125.38650818749372,
        "alt_km": 529.6981405413962,
        "timestamp": "2025-12-07T22:37:43.356609+00:00",
        "meta_object_name": "FENGYUN 1C DEB",
        "meta_object_id": "1999-025AHJ",
        "meta_epoch": "2025-12-07T04:42:05.600160",
        "meta_mean_motion": 14.94150802,
        "meta_eccentricity": 0.0130087,
        "meta_inclination": 98.7831,
        "meta_ra_of_asc_node": 246.3819,
        "meta_arg_of_pericenter": 115.1971,
        "meta_mean_anomaly": 246.28,
        "meta_ephemeris_type": 0,
        "meta_classification_type": "U",
        "meta_norad_cat_id": 30496,
        "meta_element_set_no": 999,
        "meta_rev_at_epoch": 1061,
        "meta_bstar": 0.0007675296,
        "meta_mean_motion_dot": 9.644e-05,
        "meta_mean_motion_ddot": 0,
        "tle_line1": "1 30496U 99025AHJ 25341.19589815  .00009644  00000+0  76753-3 0  9991",
        "tle_line2": "2 30496  98.7831 246.3819 0130087 115.1971 246.2800 14.94150802 10611"
      },
      "geometry": {
        "type": "Point",
        "coordinates": [
          -125.38650818749372,
          54.67934695163715
        ]
      }
    },
    {
      "type": "Feature",
      "properties": {
        "norad_id": 30498,
        "name": "FENGYUN 1C DEB",
        "group": "fengyun-1c-debris",
        "lat": -75.56082197367392,
        "lon": 173.7747367796298,
        "alt_km": 879.6944697799618,
        "timestamp": "2025-12-07T22:37:43.356620+00:00",
        "meta_object_name": "FENGYUN 1C DEB",
        "meta_object_id": "1999-025AHL",
        "meta_epoch": "2025-12-07T02:45:49.836960",
        "meta_mean_motion": 14.06015083,
        "meta_eccentricity": 0.01049066,
        "meta_inclination": 99.2373,
        "meta_ra_of_asc_node": 32.1299,
        "meta_arg_of_pericenter": 170.9776,
        "meta_mean_anomaly": 219.3902,
        "meta_ephemeris_type": 0,
        "meta_classification_type": "U",
        "meta_norad_cat_id": 30498,
        "meta_element_set_no": 999,
        "meta_rev_at_epoch": 95690,
        "meta_bstar": 0.0026414217,
        "meta_mean_motion_dot": 4.508e-05,
        "meta_mean_motion_ddot": 0,
        "tle_line1": "1 30498U 99025AHL 25341.11516015  .00004508  00000+0  26414-2 0  9999",
        "tle_line2": "2 30498  99.2373  32.1299 0104906 170.9776 219.3902 14.06015083956905"
      },
      "geometry": {
        "type": "Point",
        "coordinates": [
          173.7747367796298,
          -75.56082197367392
        ]
      }
    },
    {
      "type": "Feature",
      "properties": {
        "norad_id": 30500,
        "name": "FENGYUN 1C DEB",
        "group": "fengyun-1c-debris",
        "lat": 31.83926808755263,
        "lon": -101.03257684683946,
        "alt_km": 761.3968878135183,
        "timestamp": "2025-12-07T22:37:43.356630+00:00",
        "meta_object_name": "FENGYUN 1C DEB",
        "meta_object_id": "1999-025AHN",
        "meta_epoch": "2025-12-07T05:14:39.155136",
        "meta_mean_motion": 14.25093785,
        "meta_eccentricity": 0.00654599,
        "meta_inclination": 99.0728,
        "meta_ra_of_asc_node": 72.5243,
        "meta_arg_of_pericenter": 131.9902,
        "meta_mean_anomaly": 261.2777,
        "meta_ephemeris_type": 0,
        "meta_classification_type": "U",
        "meta_norad_cat_id": 30500,
        "meta_element_set_no": 999,
        "meta_rev_at_epoch": 96603,
        "meta_bstar": 0.0040949112,
        "meta_mean_motion_dot": 9.785e-05,
        "meta_mean_motion_ddot": 0,
        "tle_line1": "1 30500U 99025AHN 25341.21850874  .00009785  00000+0  40949-2 0  9999",
        "tle_line2": "2 30500  99.0728  72.5243 0065459 131.9902 261.2777 14.25093785966032"
      },
      "geometry": {
        "type": "Point",
        "coordinates": [
          -101.03257684683946,
          31.83926808755263
        ]
      }
    },
    {
      "type": "Feature",
      "properties": {
        "norad_id": 30501,
        "name": "FENGYUN 1C DEB",
        "group": "fengyun-1c-debris",
        "lat": 80.80366705119506,
        "lon": -126.2695905761576,
        "alt_km": 816.9966713954227,
        "timestamp": "2025-12-07T22:37:43.356641+00:00",
        "meta_object_name": "FENGYUN 1C DEB",
        "meta_object_id": "1999-025AHP",
        "meta_epoch": "2025-12-06T22:44:59.169120",
        "meta_mean_motion": 14.25273805,
        "meta_eccentricity": 0.00405797,
        "meta_inclination": 99.083,
        "meta_ra_of_asc_node": 331.5494,
        "meta_arg_of_pericenter": 219.9238,
        "meta_mean_anomaly": 169.5926,
        "meta_ephemeris_type": 0,
        "meta_classification_type": "U",
        "meta_norad_cat_id": 30501,
        "meta_element_set_no": 999,
        "meta_rev_at_epoch": 96837,
        "meta_bstar": 0.0026307487,
        "meta_mean_motion_dot": 6.201e-05,
        "meta_mean_motion_ddot": 0,
        "tle_line1": "1 30501U 99025AHP 25340.94790705  .00006201  00000+0  26307-2 0  9997",
        "tle_line2": "2 30501  99.0830 331.5494 0040579 219.9238 169.5926 14.25273805968376"
      },
      "geometry": {
        "type": "Point",
        "coordinates": [
          -126.2695905761576,
          80.80366705119506
        ]
      }
    },
    {
      "type": "Feature",
      "properties": {
        "norad_id": 30503,
        "name": "FENGYUN 1C DEB",
        "group": "fengyun-1c-debris",
        "lat": 71.48169272149774,
        "lon": 34.25621494884901,
        "alt_km": 837.5908489129906,
        "timestamp": "2025-12-07T22:37:43.356651+00:00",
        "meta_object_name": "FENGYUN 1C DEB",
        "meta_object_id": "1999-025AHR",
        "meta_epoch": "2025-12-07T07:42:21.892608",
        "meta_mean_motion": 14.16116085,
        "meta_eccentricity": 0.00083644,
        "meta_inclination": 99.2048,
        "meta_ra_of_asc_node": 184.6597,
        "meta_arg_of_pericenter": 283.214,
        "meta_mean_anomaly": 254.8252,
        "meta_ephemeris_type": 0,
        "meta_classification_type": "U",
        "meta_norad_cat_id": 30503,
        "meta_element_set_no": 999,
        "meta_rev_at_epoch": 97269,
        "meta_bstar": 0.00048134658,
        "meta_mean_motion_dot": 9.04e-06,
        "meta_mean_motion_ddot": 0,
        "tle_line1": "1 30503U 99025AHR 25341.32108672  .00000904  00000+0  48135-3 0  9996",
        "tle_line2": "2 30503  99.2048 184.6597 0008364 283.2140 254.8252 14.16116085972690"
      },
      "geometry": {
        "type": "Point",
        "coordinates": [
          34.25621494884901,
          71.48169272149774
        ]
      }
    }
  ]
}